[{"OBJECT_NAME":"STARLINK-3941","OBJECT_ID":"2022-052AS","EPOCH":"2025-10-23T01:17:47.273568","MEAN_MOTION":15.0883912,"ECCENTRICITY":0.00013692,"INCLINATION":53.2171,"RA_OF_ASC_NODE":166.989,"ARG_OF_PERICENTER":89.564,"MEAN_ANOMALY":270.5509,"EPHEMERIS_TYPE":0,"CLASSIFICATION_TYPE":"U","NORAD_CAT_ID":52638,"ELEMENT_SET_NO":999,"REV_AT_EPOCH":19102,"BSTAR":4.2520271e-5,"MEAN_MOTION_DOT":3.89e-6,"MEAN_MOTION_DDOT":0},{"OBJECT_NAME":"STARLINK-3968","OBJECT_ID":"2022-052AT","EPOCH":"2025-10-23T08:23:03.064992","MEAN_MOTION":15.08840897,"ECCENTRICITY":0.0001208,"INCLINATION":53.2162,"RA_OF_ASC_NODE":155.6656,"ARG_OF_PERICENTER":84.8513,"MEAN_ANOMALY":275.2617,"EPHEMERIS_TYPE":0,"CLASSIFICATION_TYPE":"U","NORAD_CAT_ID":52639,"ELEMENT_SET_NO":999,"REV_AT_EPOCH":19120,"BSTAR":0.00010368,"MEAN_MOTION_DOT":1.363e-5,"MEAN_MOTION_DDOT":0},{"OBJECT_NAME":"STARLINK-3977","OBJECT_ID":"2022-052AU","EPOCH":"2025-10-23T15:11:06.269280","MEAN_MOTION":15.08822159,"ECCENTRICITY":0.0001252,"INCLINATION":53.2165,"RA_OF_ASC_NODE":154.4191,"ARG_OF_PERICENTER":83.6771,"MEAN_ANOMALY":276.4363,"EPHEMERIS_TYPE":0,"CLASSIFICATION_TYPE":"U","NORAD_CAT_ID":52640,"ELEMENT_SET_NO":999,"REV_AT_EPOCH":19043,"BSTAR":0.00011895,"MEAN_MOTION_DOT":1.605e-5,"MEAN_MOTION_DDOT":0},{"OBJECT_NAME":"STARLINK-3991","OBJECT_ID":"2022-052AV","EPOCH":"2025-10-23T15:07:11.771040","MEAN_MOTION":15.08843928,"ECCENTRICITY":0.0001526,"INCLINATION":53.2166,"RA_OF_ASC_NODE":154.603,"ARG_OF_PERICENTER":94.944,"MEAN_ANOMALY":265.1727,"EPHEMERIS_TYPE":0,"CLASSIFICATION_TYPE":"U","NORAD_CAT_ID":52641,"ELEMENT_SET_NO":999,"REV_AT_EPOCH":19044,"BSTAR":-1.9153e-5,"MEAN_MOTION_DOT":-5.93e-6,"MEAN_MOTION_DDOT":0},{"OBJECT_NAME":"STARLINK-3971","OBJECT_ID":"2022-052AW","EPOCH":"2025-10-22T15:04:24.173184","MEAN_MOTION":15.08837922,"ECCENTRICITY":0.00013865,"INCLINATION":53.2173,"RA_OF_ASC_NODE":158.9028,"ARG_OF_PERICENTER":83.2256,"MEAN_ANOMALY":276.8894,"EPHEMERIS_TYPE":0,"CLASSIFICATION_TYPE":"U","NORAD_CAT_ID":52642,"ELEMENT_SET_NO":999,"REV_AT_EPOCH":19028,"BSTAR":7.9187173e-5,"MEAN_MOTION_DOT":9.72e-6,"MEAN_MOTION_DDOT":0},{"OBJECT_NAME":"STARLINK-3963","OBJECT_ID":"2022-052AX","EPOCH":"2025-10-23T07:57:55.697760","MEAN_MOTION":15.08841589,"ECCENTRICITY":0.0001439,"INCLINATION":53.2146,"RA_OF_ASC_NODE":155.7169,"ARG_OF_PERICENTER":86.6879,"MEAN_ANOMALY":273.4278,"EPHEMERIS_TYPE":0,"CLASSIFICATION_TYPE":"U","NORAD_CAT_ID":52643,"ELEMENT_SET_NO":999,"REV_AT_EPOCH":19039,"BSTAR":0.00014963,"MEAN_MOTION_DOT":2.094e-5,"MEAN_MOTION_DDOT":0},{"OBJECT_NAME":"STARLINK-3985","OBJECT_ID":"2022-052AY","EPOCH":"2025-10-23T14:49:52.127616","MEAN_MOTION":15.08905035,"ECCENTRICITY":4.59e-5,"INCLINATION":53.2157,"RA_OF_ASC_NODE":154.4585,"ARG_OF_PERICENTER":13.536,"MEAN_ANOMALY":346.5644,"EPHEMERIS_TYPE":0,"CLASSIFICATION_TYPE":"U","NORAD_CAT_ID":52644,"ELEMENT_SET_NO":999,"REV_AT_EPOCH":19043,"BSTAR":-0.0011611,"MEAN_MOTION_DOT":-0.00018751,"MEAN_MOTION_DDOT":0},{"OBJECT_NAME":"STARLINK-3973","OBJECT_ID":"2022-052AZ","EPOCH":"2025-10-23T14:34:02.462880","MEAN_MOTION":15.08828826,"ECCENTRICITY":0.0001276,"INCLINATION":53.2165,"RA_OF_ASC_NODE":154.6124,"ARG_OF_PERICENTER":85.4716,"MEAN_ANOMALY":274.6422,"EPHEMERIS_TYPE":0,"CLASSIFICATION_TYPE":"U","NORAD_CAT_ID":52645,"ELEMENT_SET_NO":999,"REV_AT_EPOCH":19043,"BSTAR":-7.4126e-5,"MEAN_MOTION_DOT":-1.467e-5,"MEAN_MOTION_DDOT":0},{"OBJECT_NAME":"STARLINK-3832","OBJECT_ID":"2022-052BA","EPOCH":"2025-10-23T14:39:19.219104","MEAN_MOTION":15.08841263,"ECCENTRICITY":0.0001525,"INCLINATION":53.2145,"RA_OF_ASC_NODE":154.5322,"ARG_OF_PERICENTER":78.3834,"MEAN_ANOMALY":281.7329,"EPHEMERIS_TYPE":0,"CLASSIFICATION_TYPE":"U","NORAD_CAT_ID":52646,"ELEMENT_SET_NO":999,"REV_AT_EPOCH":19044,"BSTAR":0.0006336,"MEAN_MOTION_DOT":9.81e-5,"MEAN_MOTION_DDOT":0},{"OBJECT_NAME":"STARLINK-3846","OBJECT_ID":"2022-052BB","EPOCH":"2025-10-23T16:00:03.998880","MEAN_MOTION":15.73775018,"ECCENTRICITY":0.0001289,"INCLINATION":53.2136,"RA_OF_ASC_NODE":147.9096,"ARG_OF_PERICENTER":101.8125,"MEAN_ANOMALY":306.3162,"EPHEMERIS_TYPE":0,"CLASSIFICATION_TYPE":"U","NORAD_CAT_ID":52647,"ELEMENT_SET_NO":999,"REV_AT_EPOCH":576,"BSTAR":0.0085821,"MEAN_MOTION_DOT":0.01392997,"MEAN_MOTION_DDOT":0},{"OBJECT_NAME":"STARLINK-3854","OBJECT_ID":"2022-052BC","EPOCH":"2025-10-23T14:28:42.021696","MEAN_MOTION":15.08829633,"ECCENTRICITY":0.0001243,"INCLINATION":53.2168,"RA_OF_ASC_NODE":154.5259,"ARG_OF_PERICENTER":95.111,"MEAN_ANOMALY":265.0024,"EPHEMERIS_TYPE":0,"CLASSIFICATION_TYPE":"U","NORAD_CAT_ID":52648,"ELEMENT_SET_NO":999,"REV_AT_EPOCH":19043,"BSTAR":2.4413e-6,"MEAN_MOTION_DOT":-2.49e-6,"MEAN_MOTION_DDOT":0},{"OBJECT_NAME":"STARLINK-3868","OBJECT_ID":"2022-052BD","EPOCH":"2025-10-23T13:51:34.819776","MEAN_MOTION":15.08835725,"ECCENTRICITY":0.0001299,"INCLINATION":53.2164,"RA_OF_ASC_NODE":154.4938,"ARG_OF_PERICENTER":90.1537,"MEAN_ANOMALY":269.9604,"EPHEMERIS_TYPE":0,"CLASSIFICATION_TYPE":"U","NORAD_CAT_ID":52649,"ELEMENT_SET_NO":999,"REV_AT_EPOCH":19044,"BSTAR":6.8106e-5,"MEAN_MOTION_DOT":7.96e-6,"MEAN_MOTION_DDOT":0},{"OBJECT_NAME":"STARLINK-3891","OBJECT_ID":"2022-052BE","EPOCH":"2025-10-23T14:40:38.570592","MEAN_MOTION":15.08843248,"ECCENTRICITY":0.0001356,"INCLINATION":53.2148,"RA_OF_ASC_NODE":144.5896,"ARG_OF_PERICENTER":93.7912,"MEAN_ANOMALY":266.3235,"EPHEMERIS_TYPE":0,"CLASSIFICATION_TYPE":"U","NORAD_CAT_ID":52650,"ELEMENT_SET_NO":999,"REV_AT_EPOCH":19058,"BSTAR":-5.8081e-5,"MEAN_MOTION_DOT":-1.212e-5,"MEAN_MOTION_DDOT":0},{"OBJECT_NAME":"STARLINK-4004","OBJECT_ID":"2022-053A","EPOCH":"2025-10-23T13:48:20.032704","MEAN_MOTION":15.088454,"ECCENTRICITY":0.0001341,"INCLINATION":53.2174,"RA_OF_ASC_NODE":49.6613,"ARG_OF_PERICENTER":88.8246,"MEAN_ANOMALY":271.29,"EPHEMERIS_TYPE":0,"CLASSIFICATION_TYPE":"U","NORAD_CAT_ID":52656,"ELEMENT_SET_NO":999,"REV_AT_EPOCH":19041,"BSTAR":6.46e-5,"MEAN_MOTION_DOT":7.4e-6,"MEAN_MOTION_DDOT":0},{"OBJECT_NAME":"STARLINK-4084","OBJECT_ID":"2022-053B","EPOCH":"2025-10-23T14:41:23.601408","MEAN_MOTION":15.08836056,"ECCENTRICITY":0.0001343,"INCLINATION":53.2184,"RA_OF_ASC_NODE":49.8016,"ARG_OF_PERICENTER":97.6855,"MEAN_ANOMALY":262.429,"EPHEMERIS_TYPE":0,"CLASSIFICATION_TYPE":"U","NORAD_CAT_ID":52657,"ELEMENT_SET_NO":999,"REV_AT_EPOCH":19071,"BSTAR":6.2451e-5,"MEAN_MOTION_DOT":7.06e-6,"MEAN_MOTION_DDOT":0},{"OBJECT_NAME":"STARLINK-4082","OBJECT_ID":"2022-053C","EPOCH":"2025-10-23T15:27:40.118112","MEAN_MOTION":15.08833549,"ECCENTRICITY":0.0001475,"INCLINATION":53.2183,"RA_OF_ASC_NODE":49.341,"ARG_OF_PERICENTER":83.8329,"MEAN_ANOMALY":276.2831,"EPHEMERIS_TYPE":0,"CLASSIFICATION_TYPE":"U","NORAD_CAT_ID":52658,"ELEMENT_SET_NO":999,"REV_AT_EPOCH":19054,"BSTAR":-8.5212e-7,"MEAN_MOTION_DOT":-3.02e-6,"MEAN_MOTION_DDOT":0},{"OBJECT_NAME":"STARLINK-3960","OBJECT_ID":"2022-053D","EPOCH":"2025-10-23T13:46:56.868384","MEAN_MOTION":15.08843763,"ECCENTRICITY":0.0001498,"INCLINATION":53.2193,"RA_OF_ASC_NODE":49.6085,"ARG_OF_PERICENTER":92.2794,"MEAN_ANOMALY":267.837,"EPHEMERIS_TYPE":0,"CLASSIFICATION_TYPE":"U","NORAD_CAT_ID":52659,"ELEMENT_SET_NO":999,"REV_AT_EPOCH":19052,"BSTAR":7.5306e-5,"MEAN_MOTION_DOT":9.11e-6,"MEAN_MOTION_DDOT":0}]
