STARLINK-3941           
1 52638U 22052AS  25296.05401937  .00000389  00000+0  42520-4 0  9994
2 52638  53.2171 166.9890 0001369  89.5640 270.5509 15.08839120191023
STARLINK-3968           
1 52639U 22052AT  25296.34934104  .00001363  00000+0  10368-3 0  9991
2 52639  53.2162 155.6656 0001208  84.8513 275.2617 15.08840897191203
STARLINK-3977           
1 52640U 22052AU  25296.63271145  .00001605  00000+0  11895-3 0  9999
2 52640  53.2165 154.4191 0001251  83.6771 276.4363 15.08822159190436
STARLINK-3991           
1 52641U 22052AV  25296.62999736 -.00000593  00000+0 -19153-4 0  9995
2 52641  53.2166 154.6030 0001525  94.9440 265.1727 15.08843928190441
STARLINK-3971           
1 52642U 22052AW  25295.62805756  .00000972  00000+0  79187-4 0  9995
2 52642  53.2173 158.9028 0001386  83.2256 276.8894 15.08837922190288
STARLINK-3963           
1 52643U 22052AX  25296.33189466  .00002094  00000+0  14963-3 0  9995
2 52643  53.2146 155.7169 0001439  86.6879 273.4278 15.08841589190392
STARLINK-3985           
1 52644U 22052AY  25296.61796445 -.00018751  00000+0 -11611-2 0  9993
2 52644  53.2157 154.4585 0000459  13.5360 346.5644 15.08905035190439
STARLINK-3973           
1 52645U 22052AZ  25296.60697296 -.00001467  00000+0 -74126-4 0  9995
2 52645  53.2165 154.6124 0001276  85.4716 274.6422 15.08828826190438
STARLINK-3832           
1 52646U 22052BA  25296.61063912  .00009810  00000+0  63360-3 0  9994
2 52646  53.2145 154.5322 0001524  78.3834 281.7329 15.08841263190440
STARLINK-3846           
1 52647U 22052BB  25296.66671296  .01392997  00000+0  85821-2 0  9997
2 52647  53.2136 147.9096 0001289 101.8125 306.3162 15.73775018  5763
STARLINK-3854           
1 52648U 22052BC  25296.60326415 -.00000249  00000+0  24413-5 0  9991
2 52648  53.2168 154.5259 0001243  95.1110 265.0024 15.08829633190431
STARLINK-3868           
1 52649U 22052BD  25296.57748635  .00000796  00000+0  68106-4 0  9992
2 52649  53.2164 154.4938 0001298  90.1537 269.9604 15.08835725190446
STARLINK-3891           
1 52650U 22052BE  25296.61155754 -.00001212  00000+0 -58081-4 0  9990
2 52650  53.2148 144.5896 0001355  93.7912 266.3235 15.08843248190588
STARLINK-4004           
1 52656U 22053A   25296.57523187  .00000740  00000+0  64600-4 0  9998
2 52656  53.2174  49.6613 0001341  88.8246 271.2900 15.08845400190413
STARLINK-4084           
1 52657U 22053B   25296.61207872  .00000706  00000+0  62451-4 0  9998
2 52657  53.2184  49.8016 0001342  97.6855 262.4290 15.08836056190713
STARLINK-4082           
1 52658U 22053C   25296.64421433 -.00000302  00000+0 -85212-6 0  9999
2 52658  53.2183  49.3410 0001475  83.8329 276.2831 15.08833549190545
STARLINK-3960           
1 52659U 22053D   25296.57426931  .00000911  00000+0  75306-4 0  9995
2 52659  53.2193  49.6085 0001497  92.2794 267.8370 15.08843763190523
